IRIDIUM 154             
1 43574U 18061F   26203.04609384  .00000051  00000+0  11298-4 0  9996
2 43574  86.3938  42.2246 0002308  88.8081 271.3379 14.34217689418402
IRIDIUM 163             
1 43575U 18061G   26203.09683382  .00000114  00000+0  33736-4 0  9993
2 43575  86.3935  42.1174 0002113  87.8254 272.3183 14.34218339418388
IRIDIUM 156             
1 43576U 18061H   26203.07146287  .00000237  00000+0  77445-4 0  9991
2 43576  86.3936  42.1356 0002185  93.4086 266.7360 14.34218031418379
IRIDIUM 164             
1 43577U 18061J   26203.05243609  .00000017  00000+0 -94172-6 0  9991
2 43577  86.3933  42.1843 0002206  88.2587 271.8861 14.34217726418418
IRIDIUM 159             
1 43578U 18061K   26203.09049124  .00000021  00000+0  40813-6 0  9999
2 43578  86.3932  42.1046 0001993  87.0344 273.1080 14.34217572418386
IRIDIUM 180             
1 43922U 19002A   26202.39230305 -.00000028  00000+0 -16993-4 0  9992
2 43922  86.3995 339.3000 0002043  91.2586 268.8844 14.34217275393898
IRIDIUM 176             
1 43923U 19002B   26202.82263496  .00000665  00000+0  10161-3 0  9993
2 43923  86.6120 339.0585 0002340  91.8385 268.3100 14.72255616404346
IRIDIUM 168             
1 43924U 19002C   26202.80457155  .00000208  00000+0  67287-4 0  9994
2 43924  86.4001 339.2057 0002196  91.8296 268.3152 14.34218716393936
IRIDIUM 173             
1 43925U 19002D   26202.65234855 -.00000020  00000+0 -14226-4 0  9997
2 43925  86.3994 339.1570 0002028  93.0412 267.1016 14.34217668393890
IRIDIUM 169             
1 43926U 19002E   26202.47364598  .00000145  00000+0  40938-4 0  9991
2 43926  86.4234  10.8549 0002044 104.8033 255.3392 14.38600315395152
IRIDIUM 172             
1 43927U 19002F   26202.64600617  .00000048  00000+0  10094-4 0  9998
2 43927  86.3998 339.1675 0002193  92.0490 268.0957 14.34218028393907
IRIDIUM 175             
1 43928U 19002G   26203.14101192  .00000223  00000+0  59820-4 0  9994
2 43928  86.4503 275.9107 0005556 101.9242 258.2583 14.43629773404024
IRIDIUM 171             
1 43929U 19002H   26203.32466427  .00000206  00000+0  66482-4 0  9993
2 43929  86.4009 339.1940 0002269  95.3139 264.8316 14.34218413393998
IRIDIUM 170             
1 43930U 19002J   26203.30457487  .00000618  00000+0  94096-4 0  9998
2 43930  86.6119 338.8592 0002192  89.5421 270.6047 14.72256453404422
IRIDIUM 167             
1 43931U 19002K   26202.82994175  .00000003  00000+0 -60420-5 0  9999
2 43931  86.3996 339.1138 0002293  98.4820 261.6636 14.34217525393928
IRIDIUM 181             
1 56726U 23068S   26203.04847146  .00000269  00000+0  73859-4 0  9994
2 56726  86.4475  42.2107 0002342  83.6931 276.4537 14.43309906167466
IRIDIUM 177             
1 56727U 23068T   26202.73526944  .00000897  00000+0  11512-3 0  9994
2 56727  86.1988 312.3906 0002250  97.5640 262.5837 14.80032734171478
IRIDIUM 174             
1 56728U 23068U   26202.81633539  .00000669  00000+0  10220-3 0  9995
2 56728  86.6118 339.2130 0001874  93.3317 266.8114 14.72252025171116
IRIDIUM 178             
1 56729U 23068V   26202.99474495  .00000759  00000+0  96879-4 0  9994
2 56729  86.6545  10.8120 0002284  92.2968 267.8515 14.80020866171513
IRIDIUM 179             
1 56730U 23068W   26202.98939485  .00000258  00000+0  30700-4 0  9995
2 56730  86.6772  19.8962 0002403  94.1486 266.0010 14.80025133171512
