OBJECT_NAME,OBJECT_ID,EPOCH,MEAN_MOTION,ECCENTRICITY,INCLINATION,RA_OF_ASC_NODE,ARG_OF_PERICENTER,MEAN_ANOMALY,EPHEMERIS_TYPE,CLASSIFICATION_TYPE,NORAD_CAT_ID,ELEMENT_SET_NO,REV_AT_EPOCH,BSTAR,MEAN_MOTION_DOT,MEAN_MOTION_DDOT
IRIDIUM 154,2018-061F,2026-07-22T01:06:22.507776,14.34217689,.00023088,86.3938,42.2246,88.8081,271.3379,0,U,43574,999,41840,.11298375E-4,.51E-6,0
IRIDIUM 163,2018-061G,2026-07-22T02:19:26.442048,14.34218339,.00021136,86.3935,42.1174,87.8254,272.3183,0,U,43575,999,41838,.33735819E-4,.114E-5,0
IRIDIUM 156,2018-061H,2026-07-22T01:42:54.391968,14.34218031,.00021857,86.3936,42.1356,93.4086,266.7360,0,U,43576,999,41837,.77444848E-4,.237E-5,0
IRIDIUM 164,2018-061J,2026-07-22T01:15:30.478176,14.34217726,.00022062,86.3933,42.1843,88.2587,271.8861,0,U,43577,999,41841,-.941715E-6,.17E-6,0
IRIDIUM 159,2018-061K,2026-07-22T02:10:18.443136,14.34217572,.0001993,86.3932,42.1046,87.0344,273.1080,0,U,43578,999,41838,.408129E-6,.21E-6,0
IRIDIUM 180,2019-002A,2026-07-21T09:24:54.983520,14.34217275,.00020436,86.3995,339.3000,91.2586,268.8844,0,U,43922,999,39389,-.16993467E-4,-.28E-6,0
IRIDIUM 176,2019-002B,2026-07-21T19:44:35.660544,14.72255616,.00023403,86.6120,339.0585,91.8385,268.3100,0,U,43923,999,40434,.10161435E-3,.665E-5,0
IRIDIUM 168,2019-002C,2026-07-21T19:18:34.981920,14.34218716,.00021968,86.4001,339.2057,91.8296,268.3152,0,U,43924,999,39393,.67287487E-4,.208E-5,0
IRIDIUM 173,2019-002D,2026-07-21T15:39:22.914720,14.34217668,.00020289,86.3994,339.1570,93.0412,267.1016,0,U,43925,999,39389,-.14225571E-4,-.2E-6,0
IRIDIUM 169,2019-002E,2026-07-21T11:22:03.012672,14.38600315,.00020442,86.4234,10.8549,104.8033,255.3392,0,U,43926,999,39515,.40937563E-4,.145E-5,0
IRIDIUM 172,2019-002F,2026-07-21T15:30:14.933088,14.34218028,.00021935,86.3998,339.1675,92.0490,268.0957,0,U,43927,999,39390,.1009375E-4,.48E-6,0
IRIDIUM 175,2019-002G,2026-07-22T03:23:03.429888,14.43629773,.00055563,86.4503,275.9107,101.9242,258.2583,0,U,43928,999,40402,.59819781E-4,.223E-5,0
IRIDIUM 171,2019-002H,2026-07-22T07:47:30.992928,14.34218413,.0002269,86.4009,339.1940,95.3139,264.8316,0,U,43929,999,39399,.66482307E-4,.206E-5,0
IRIDIUM 170,2019-002J,2026-07-22T07:18:35.268768,14.72256453,.00021929,86.6119,338.8592,89.5421,270.6047,0,U,43930,999,40442,.94096433E-4,.618E-5,0
IRIDIUM 167,2019-002K,2026-07-21T19:55:06.967200,14.34217525,.00022938,86.3996,339.1138,98.4820,261.6636,0,U,43931,999,39392,-.604196E-5,.3E-7,0
IRIDIUM 181,2023-068S,2026-07-22T01:09:47.934144,14.43309906,.00023423,86.4475,42.2107,83.6931,276.4537,0,U,56726,999,16746,.73858864E-4,.269E-5,0
IRIDIUM 177,2023-068T,2026-07-21T17:38:47.279616,14.80032734,.00022503,86.1988,312.3906,97.5640,262.5837,0,U,56727,999,17147,.11512068E-3,.897E-5,0
IRIDIUM 174,2023-068U,2026-07-21T19:35:31.377696,14.72252025,.00018741,86.6118,339.2130,93.3317,266.8114,0,U,56728,999,17111,.10219748E-3,.669E-5,0
IRIDIUM 178,2023-068V,2026-07-21T23:52:25.963680,14.80020866,.00022847,86.6545,10.8120,92.2968,267.8515,0,U,56729,999,17151,.96879049E-4,.759E-5,0
IRIDIUM 179,2023-068W,2026-07-21T23:44:43.715040,14.80025133,.0002403,86.6772,19.8962,94.1486,266.0010,0,U,56730,999,17151,.30699729E-4,.258E-5,0
